{
  "type": "FeatureCollection",
  "features": [
    {
      "type": "Feature",
      "properties": {
        "norad_id": 66590,
        "name": "STARLINK-35429",
        "group": "last-30-days",
        "lat": -20.54573706574045,
        "lon": -148.828703655248,
        "alt_km": 343.9302408564781,
        "timestamp": "2025-12-05T14:45:14.102293+00:00",
        "meta_object_name": "STARLINK-35429",
        "meta_object_id": "2025-270C",
        "meta_epoch": "2025-12-04T16:03:38.989728",
        "meta_mean_motion": 15.75057545,
        "meta_eccentricity": 0.0002213,
        "meta_inclination": 42.9988,
        "meta_ra_of_asc_node": 240.6296,
        "meta_arg_of_pericenter": 268.2955,
        "meta_mean_anomaly": 91.7661,
        "meta_ephemeris_type": 0,
        "meta_classification_type": "U",
        "meta_norad_cat_id": 66590,
        "meta_element_set_no": 999,
        "meta_rev_at_epoch": 319,
        "meta_bstar": 0.0020232,
        "meta_mean_motion_dot": 0.00322756,
        "meta_mean_motion_ddot": 0,
        "tle_line1": "1 66590U 25270C   25338.66920127  .00322756  00000+0  20232-2 0  9991",
        "tle_line2": "2 66590  42.9988 240.6296 0002213 268.2955  91.7661 15.75057545  3199"
      },
      "geometry": {
        "type": "Point",
        "coordinates": [
          -148.828703655248,
          -20.54573706574045
        ]
      }
    },
    {
      "type": "Feature",
      "properties": {
        "norad_id": 66591,
        "name": "STARLINK-36058",
        "group": "last-30-days",
        "lat": -18.15892836006365,
        "lon": -145.73063690779503,
        "alt_km": 343.3142250558876,
        "timestamp": "2025-12-05T14:45:14.102303+00:00",
        "meta_object_name": "STARLINK-36058",
        "meta_object_id": "2025-270D",
        "meta_epoch": "2025-12-04T16:02:41.163072",
        "meta_mean_motion": 15.75043824,
        "meta_eccentricity": 0.0002602,
        "meta_inclination": 42.998,
        "meta_ra_of_asc_node": 240.6243,
        "meta_arg_of_pericenter": 283.7895,
        "meta_mean_anomaly": 76.2684,
        "meta_ephemeris_type": 0,
        "meta_classification_type": "U",
        "meta_norad_cat_id": 66591,
        "meta_element_set_no": 999,
        "meta_rev_at_epoch": 308,
        "meta_bstar": 0.002088,
        "meta_mean_motion_dot": 0.00333331,
        "meta_mean_motion_ddot": 0,
        "tle_line1": "1 66591U 25270D   25338.66853198  .00333331  00000+0  20880-2 0  9995",
        "tle_line2": "2 66591  42.9980 240.6243 0002602 283.7895  76.2684 15.75043824  3087"
      },
      "geometry": {
        "type": "Point",
        "coordinates": [
          -145.73063690779503,
          -18.15892836006365
        ]
      }
    },
    {
      "type": "Feature",
      "properties": {
        "norad_id": 66592,
        "name": "STARLINK-36066",
        "group": "last-30-days",
        "lat": -16.920989468786654,
        "lon": -144.18327888266228,
        "alt_km": 343.76385458668574,
        "timestamp": "2025-12-05T14:45:14.102334+00:00",
        "meta_object_name": "STARLINK-36066",
        "meta_object_id": "2025-270E",
        "meta_epoch": "2025-12-04T16:02:11.616000",
        "meta_mean_motion": 15.75068657,
        "meta_eccentricity": 0.0002573,
        "meta_inclination": 42.9984,
        "meta_ra_of_asc_node": 240.6198,
        "meta_arg_of_pericenter": 265.0868,
        "meta_mean_anomaly": 94.9708,
        "meta_ephemeris_type": 0,
        "meta_classification_type": "U",
        "meta_norad_cat_id": 66592,
        "meta_element_set_no": 999,
        "meta_rev_at_epoch": 298,
        "meta_bstar": 0.001887,
        "meta_mean_motion_dot": 0.00300347,
        "meta_mean_motion_ddot": 0,
        "tle_line1": "1 66592U 25270E   25338.66819000  .00300347  00000+0  18870-2 0  9997",
        "tle_line2": "2 66592  42.9984 240.6198 0002573 265.0868  94.9708 15.75068657  2984"
      },
      "geometry": {
        "type": "Point",
        "coordinates": [
          -144.18327888266228,
          -16.920989468786654
        ]
      }
    },
    {
      "type": "Feature",
      "properties": {
        "norad_id": 66593,
        "name": "STARLINK-36031",
        "group": "last-30-days",
        "lat": -14.234366085325513,
        "lon": -140.93390634369615,
        "alt_km": 339.215397669479,
        "timestamp": "2025-12-05T14:45:14.102345+00:00",
        "meta_object_name": "STARLINK-36031",
        "meta_object_id": "2025-270F",
        "meta_epoch": "2025-12-04T16:01:12.652320",
        "meta_mean_motion": 15.7491846,
        "meta_eccentricity": 0.0006603,
        "meta_inclination": 42.9978,
        "meta_ra_of_asc_node": 240.6163,
        "meta_arg_of_pericenter": 319.9037,
        "meta_mean_anomaly": 40.1344,
        "meta_ephemeris_type": 0,
        "meta_classification_type": "U",
        "meta_norad_cat_id": 66593,
        "meta_element_set_no": 999,
        "meta_rev_at_epoch": 308,
        "meta_bstar": 0.003472,
        "meta_mean_motion_dot": 0.00567567,
        "meta_mean_motion_ddot": 0,
        "tle_line1": "1 66593U 25270F   25338.66750755  .00567567  00000+0  34720-2 0  9990",
        "tle_line2": "2 66593  42.9978 240.6163 0006603 319.9037  40.1344 15.74918460  3081"
      },
      "geometry": {
        "type": "Point",
        "coordinates": [
          -140.93390634369615,
          -14.234366085325513
        ]
      }
    },
    {
      "type": "Feature",
      "properties": {
        "norad_id": 66594,
        "name": "STARLINK-36032",
        "group": "last-30-days",
        "lat": 3.1062778337836963,
        "lon": -121.86105200816414,
        "alt_km": 335.30283692463763,
        "timestamp": "2025-12-05T14:45:14.102359+00:00",
        "meta_object_name": "STARLINK-36032",
        "meta_object_id": "2025-270G",
        "meta_epoch": "2025-12-04T17:27:41.831136",
        "meta_mean_motion": 15.77063512,
        "meta_eccentricity": 0.0013475,
        "meta_inclination": 42.9972,
        "meta_ra_of_asc_node": 240.2038,
        "meta_arg_of_pericenter": 269.3306,
        "meta_mean_anomaly": 90.602,
        "meta_ephemeris_type": 0,
        "meta_classification_type": "U",
        "meta_norad_cat_id": 66594,
        "meta_element_set_no": 999,
        "meta_rev_at_epoch": 290,
        "meta_bstar": 0.0030656,
        "meta_mean_motion_dot": 0.00551337,
        "meta_mean_motion_ddot": 0,
        "tle_line1": "1 66594U 25270G   25338.72756749  .00551337  00000+0  30656-2 0  9999",
        "tle_line2": "2 66594  42.9972 240.2038 0013475 269.3306  90.6020 15.77063512  2908"
      },
      "geometry": {
        "type": "Point",
        "coordinates": [
          -121.86105200816414,
          3.1062778337836963
        ]
      }
    },
    {
      "type": "Feature",
      "properties": {
        "norad_id": 66595,
        "name": "STARLINK-35711",
        "group": "last-30-days",
        "lat": -13.2478610207158,
        "lon": -139.77472805363138,
        "alt_km": 343.5957315204714,
        "timestamp": "2025-12-05T14:45:14.102371+00:00",
        "meta_object_name": "STARLINK-35711",
        "meta_object_id": "2025-270H",
        "meta_epoch": "2025-12-04T16:00:44.345088",
        "meta_mean_motion": 15.75069212,
        "meta_eccentricity": 0.0002406,
        "meta_inclination": 42.9987,
        "meta_ra_of_asc_node": 240.6131,
        "meta_arg_of_pericenter": 272.2557,
        "meta_mean_anomaly": 87.8037,
        "meta_ephemeris_type": 0,
        "meta_classification_type": "U",
        "meta_norad_cat_id": 66595,
        "meta_element_set_no": 999,
        "meta_rev_at_epoch": 319,
        "meta_bstar": 0.0016803,
        "meta_mean_motion_dot": 0.00266303,
        "meta_mean_motion_ddot": 0,
        "tle_line1": "1 66595U 25270H   25338.66717992  .00266303  00000+0  16803-2 0  9994",
        "tle_line2": "2 66595  42.9987 240.6131 0002406 272.2557  87.8037 15.75069212  3195"
      },
      "geometry": {
        "type": "Point",
        "coordinates": [
          -139.77472805363138,
          -13.2478610207158
        ]
      }
    },
    {
      "type": "Feature",
      "properties": {
        "norad_id": 66596,
        "name": "STARLINK-35811",
        "group": "last-30-days",
        "lat": -13.17209079610115,
        "lon": -139.68795106647374,
        "alt_km": 349.27222100118433,
        "timestamp": "2025-12-05T14:45:14.102381+00:00",
        "meta_object_name": "STARLINK-35811",
        "meta_object_id": "2025-270J",
        "meta_epoch": "2025-12-04T15:59:44.301408",
        "meta_mean_motion": 15.75427926,
        "meta_eccentricity": 0.0004617,
        "meta_inclination": 42.9987,
        "meta_ra_of_asc_node": 240.6055,
        "meta_arg_of_pericenter": 284.7362,
        "meta_mean_anomaly": 75.2995,
        "meta_ephemeris_type": 0,
        "meta_classification_type": "U",
        "meta_norad_cat_id": 66596,
        "meta_element_set_no": 999,
        "meta_rev_at_epoch": 319,
        "meta_bstar": -0.0086062,
        "meta_mean_motion_dot": -0.01194988,
        "meta_mean_motion_ddot": 0,
        "tle_line1": "1 66596U 25270J   25338.66648497 -.01194988  00000+0 -86062-2 0  9994",
        "tle_line2": "2 66596  42.9987 240.6055 0004617 284.7362  75.2995 15.75427926  3193"
      },
      "geometry": {
        "type": "Point",
        "coordinates": [
          -139.68795106647374,
          -13.17209079610115
        ]
      }
    }
  ]
}